[{"OBJECT_NAME":"STARLINK-36993","OBJECT_ID":"2026-039J","EPOCH":"2026-03-19T06:00:02.000160","MEAN_MOTION":15.62567065,"ECCENTRICITY":0.00016272,"INCLINATION":42.9995,"RA_OF_ASC_NODE":356.6678,"ARG_OF_PERICENTER":274.4421,"MEAN_ANOMALY":157.8797,"EPHEMERIS_TYPE":0,"CLASSIFICATION_TYPE":"U","NORAD_CAT_ID":67994,"ELEMENT_SET_NO":999,"REV_AT_EPOCH":441,"BSTAR":-0.02265341,"MEAN_MOTION_DOT":-0.01846158,"MEAN_MOTION_DDOT":0},{"OBJECT_NAME":"STARLINK-36968","OBJECT_ID":"2026-039K","EPOCH":"2026-03-19T06:00:02.000160","MEAN_MOTION":15.50511916,"ECCENTRICITY":0.00016504,"INCLINATION":43.0001,"RA_OF_ASC_NODE":357.4231,"ARG_OF_PERICENTER":263.6366,"MEAN_ANOMALY":223.0025,"EPHEMERIS_TYPE":0,"CLASSIFICATION_TYPE":"U","NORAD_CAT_ID":67995,"ELEMENT_SET_NO":999,"REV_AT_EPOCH":441,"BSTAR":0.00182018,"MEAN_MOTION_DOT":0.00107663,"MEAN_MOTION_DDOT":0},{"OBJECT_NAME":"STARLINK-36979","OBJECT_ID":"2026-039L","EPOCH":"2026-03-19T06:00:02.000160","MEAN_MOTION":15.64153063,"ECCENTRICITY":0.00015685,"INCLINATION":43.0001,"RA_OF_ASC_NODE":356.5931,"ARG_OF_PERICENTER":279.0042,"MEAN_ANOMALY":183.0008,"EPHEMERIS_TYPE":0,"CLASSIFICATION_TYPE":"U","NORAD_CAT_ID":67996,"ELEMENT_SET_NO":999,"REV_AT_EPOCH":441,"BSTAR":-0.021325491,"MEAN_MOTION_DOT":-0.01850515,"MEAN_MOTION_DDOT":0},{"OBJECT_NAME":"STARLINK-36994","OBJECT_ID":"2026-039M","EPOCH":"2026-03-19T06:00:02.000160","MEAN_MOTION":15.58235711,"ECCENTRICITY":0.00014797,"INCLINATION":42.9996,"RA_OF_ASC_NODE":356.8238,"ARG_OF_PERICENTER":268.4388,"MEAN_ANOMALY":100.4414,"EPHEMERIS_TYPE":0,"CLASSIFICATION_TYPE":"U","NORAD_CAT_ID":67997,"ELEMENT_SET_NO":999,"REV_AT_EPOCH":441,"BSTAR":-0.02683443,"MEAN_MOTION_DOT":-0.01848062,"MEAN_MOTION_DDOT":0},{"OBJECT_NAME":"STARLINK-36988","OBJECT_ID":"2026-039N","EPOCH":"2026-03-19T06:00:02.000160","MEAN_MOTION":15.59272767,"ECCENTRICITY":0.00016416,"INCLINATION":42.9994,"RA_OF_ASC_NODE":356.7834,"ARG_OF_PERICENTER":269.5736,"MEAN_ANOMALY":115.7435,"EPHEMERIS_TYPE":0,"CLASSIFICATION_TYPE":"U","NORAD_CAT_ID":67998,"ELEMENT_SET_NO":999,"REV_AT_EPOCH":441,"BSTAR":-0.025832974,"MEAN_MOTION_DOT":-0.01850941,"MEAN_MOTION_DDOT":0},{"OBJECT_NAME":"STARLINK-36926","OBJECT_ID":"2026-039P","EPOCH":"2026-03-19T06:00:02.000160","MEAN_MOTION":15.58423421,"ECCENTRICITY":0.00015659,"INCLINATION":43,"RA_OF_ASC_NODE":356.8033,"ARG_OF_PERICENTER":267.5109,"MEAN_ANOMALY":109.4474,"EPHEMERIS_TYPE":0,"CLASSIFICATION_TYPE":"U","NORAD_CAT_ID":67999,"ELEMENT_SET_NO":999,"REV_AT_EPOCH":441,"BSTAR":-0.026649599,"MEAN_MOTION_DOT":-0.01848533,"MEAN_MOTION_DDOT":0},{"OBJECT_NAME":"STARLINK-36931","OBJECT_ID":"2026-039Q","EPOCH":"2026-03-19T06:00:02.000160","MEAN_MOTION":15.62474362,"ECCENTRICITY":0.00015987,"INCLINATION":43,"RA_OF_ASC_NODE":356.6067,"ARG_OF_PERICENTER":274.3935,"MEAN_ANOMALY":182.0245,"EPHEMERIS_TYPE":0,"CLASSIFICATION_TYPE":"U","NORAD_CAT_ID":68000,"ELEMENT_SET_NO":999,"REV_AT_EPOCH":441,"BSTAR":-0.022720067,"MEAN_MOTION_DOT":-0.01844952,"MEAN_MOTION_DDOT":0},{"OBJECT_NAME":"STARLINK-36903","OBJECT_ID":"2026-039R","EPOCH":"2026-03-19T06:00:02.000160","MEAN_MOTION":15.58308418,"ECCENTRICITY":0.00016309,"INCLINATION":42.9999,"RA_OF_ASC_NODE":356.788,"ARG_OF_PERICENTER":267.9254,"MEAN_ANOMALY":115.241,"EPHEMERIS_TYPE":0,"CLASSIFICATION_TYPE":"U","NORAD_CAT_ID":68001,"ELEMENT_SET_NO":999,"REV_AT_EPOCH":441,"BSTAR":-0.026750801,"MEAN_MOTION_DOT":-0.01847589,"MEAN_MOTION_DDOT":0},{"OBJECT_NAME":"STARLINK-36898","OBJECT_ID":"2026-039S","EPOCH":"2026-03-19T06:00:02.000160","MEAN_MOTION":15.61359103,"ECCENTRICITY":0.00015516,"INCLINATION":42.9997,"RA_OF_ASC_NODE":356.6218,"ARG_OF_PERICENTER":275.2865,"MEAN_ANOMALY":174.6401,"EPHEMERIS_TYPE":0,"CLASSIFICATION_TYPE":"U","NORAD_CAT_ID":68002,"ELEMENT_SET_NO":999,"REV_AT_EPOCH":441,"BSTAR":-0.023764633,"MEAN_MOTION_DOT":-0.01846754,"MEAN_MOTION_DDOT":0},{"OBJECT_NAME":"STARLINK-36862","OBJECT_ID":"2026-039T","EPOCH":"2026-03-19T06:00:02.000160","MEAN_MOTION":15.59231181,"ECCENTRICITY":0.00015512,"INCLINATION":43.0001,"RA_OF_ASC_NODE":356.6993,"ARG_OF_PERICENTER":272.8677,"MEAN_ANOMALY":145.8458,"EPHEMERIS_TYPE":0,"CLASSIFICATION_TYPE":"U","NORAD_CAT_ID":68003,"ELEMENT_SET_NO":999,"REV_AT_EPOCH":441,"BSTAR":-0.025812944,"MEAN_MOTION_DOT":-0.01846989,"MEAN_MOTION_DDOT":0},{"OBJECT_NAME":"STARLINK-36888","OBJECT_ID":"2026-039U","EPOCH":"2026-03-19T06:00:02.000160","MEAN_MOTION":15.58903865,"ECCENTRICITY":0.00016074,"INCLINATION":43.0002,"RA_OF_ASC_NODE":356.7475,"ARG_OF_PERICENTER":270.5037,"MEAN_ANOMALY":128.909,"EPHEMERIS_TYPE":0,"CLASSIFICATION_TYPE":"U","NORAD_CAT_ID":68004,"ELEMENT_SET_NO":999,"REV_AT_EPOCH":441,"BSTAR":-0.026175416,"MEAN_MOTION_DOT":-0.01849277,"MEAN_MOTION_DDOT":0},{"OBJECT_NAME":"STARLINK-36910","OBJECT_ID":"2026-039V","EPOCH":"2026-03-19T06:00:02.000160","MEAN_MOTION":15.62540321,"ECCENTRICITY":0.00013637,"INCLINATION":42.9999,"RA_OF_ASC_NODE":356.5605,"ARG_OF_PERICENTER":276.5673,"MEAN_ANOMALY":197.9527,"EPHEMERIS_TYPE":0,"CLASSIFICATION_TYPE":"U","NORAD_CAT_ID":68005,"ELEMENT_SET_NO":999,"REV_AT_EPOCH":441,"BSTAR":-0.022770846,"MEAN_MOTION_DOT":-0.01852739,"MEAN_MOTION_DDOT":0},{"OBJECT_NAME":"STARLINK-36889","OBJECT_ID":"2026-039W","EPOCH":"2026-03-19T06:00:02.000160","MEAN_MOTION":15.57274448,"ECCENTRICITY":0.00016349,"INCLINATION":43.0002,"RA_OF_ASC_NODE":356.7873,"ARG_OF_PERICENTER":269.3078,"MEAN_ANOMALY":113.6863,"EPHEMERIS_TYPE":0,"CLASSIFICATION_TYPE":"U","NORAD_CAT_ID":68006,"ELEMENT_SET_NO":999,"REV_AT_EPOCH":441,"BSTAR":-0.027822641,"MEAN_MOTION_DOT":-0.01847556,"MEAN_MOTION_DDOT":0},{"OBJECT_NAME":"STARLINK-36592","OBJECT_ID":"2026-039X","EPOCH":"2026-03-19T06:00:02.000160","MEAN_MOTION":15.61651696,"ECCENTRICITY":0.00013658,"INCLINATION":42.9998,"RA_OF_ASC_NODE":356.5659,"ARG_OF_PERICENTER":274.5878,"MEAN_ANOMALY":197.6024,"EPHEMERIS_TYPE":0,"CLASSIFICATION_TYPE":"U","NORAD_CAT_ID":68007,"ELEMENT_SET_NO":999,"REV_AT_EPOCH":441,"BSTAR":-0.023511224,"MEAN_MOTION_DOT":-0.01847847,"MEAN_MOTION_DDOT":0},{"OBJECT_NAME":"STARLINK-36911","OBJECT_ID":"2026-039Y","EPOCH":"2026-03-19T06:00:02.000160","MEAN_MOTION":15.60143914,"ECCENTRICITY":0.00014638,"INCLINATION":42.9999,"RA_OF_ASC_NODE":356.6227,"ARG_OF_PERICENTER":272.501,"MEAN_ANOMALY":176.7007,"EPHEMERIS_TYPE":0,"CLASSIFICATION_TYPE":"U","NORAD_CAT_ID":68008,"ELEMENT_SET_NO":999,"REV_AT_EPOCH":441,"BSTAR":-0.024774616,"MEAN_MOTION_DOT":-0.01837405,"MEAN_MOTION_DDOT":0},{"OBJECT_NAME":"STARLINK-36956","OBJECT_ID":"2026-039Z","EPOCH":"2026-03-19T06:00:02.000160","MEAN_MOTION":15.58997505,"ECCENTRICITY":0.00015061,"INCLINATION":42.9998,"RA_OF_ASC_NODE":356.667,"ARG_OF_PERICENTER":273.8323,"MEAN_ANOMALY":157.427,"EPHEMERIS_TYPE":0,"CLASSIFICATION_TYPE":"U","NORAD_CAT_ID":68009,"ELEMENT_SET_NO":999,"REV_AT_EPOCH":441,"BSTAR":-0.026030548,"MEAN_MOTION_DOT":-0.01846007,"MEAN_MOTION_DDOT":0}]
