STARLINK-36993          
1 67994U 26039J   26078.25002315 -.01846158  00000+0 -22653-1 0  9999
2 67994  42.9995 356.6678 0001627 274.4421 157.8797 15.62567065  4412
STARLINK-36968          
1 67995U 26039K   26078.25002315  .00107663  00000+0  18202-2 0  9994
2 67995  43.0001 357.4231 0001650 263.6366 223.0025 15.50511916  4412
STARLINK-36979          
1 67996U 26039L   26078.25002315 -.01850515  00000+0 -21325-1 0  9998
2 67996  43.0001 356.5931 0001568 279.0042 183.0008 15.64153063  4416
STARLINK-36994          
1 67997U 26039M   26078.25002315 -.01848062  00000+0 -26834-1 0  9993
2 67997  42.9996 356.8238 0001479 268.4388 100.4414 15.58235711  4415
STARLINK-36988          
1 67998U 26039N   26078.25002315 -.01850941  00000+0 -25833-1 0  9991
2 67998  42.9994 356.7834 0001641 269.5736 115.7435 15.59272767  4410
STARLINK-36926          
1 67999U 26039P   26078.25002315 -.01848533  00000+0 -26650-1 0  9994
2 67999  43.0000 356.8033 0001565 267.5109 109.4474 15.58423421  4417
STARLINK-36931          
1 68000U 26039Q   26078.25002315 -.01844952  00000+0 -22720-1 0  9993
2 68000  43.0000 356.6067 0001598 274.3935 182.0245 15.62474362  4413
STARLINK-36903          
1 68001U 26039R   26078.25002315 -.01847589  00000+0 -26751-1 0  9991
2 68001  42.9999 356.7880 0001630 267.9254 115.2410 15.58308418  4417
STARLINK-36898          
1 68002U 26039S   26078.25002315 -.01846754  00000+0 -23765-1 0  9997
2 68002  42.9997 356.6218 0001551 275.2865 174.6401 15.61359103  4412
STARLINK-36862          
1 68003U 26039T   26078.25002315 -.01846989  00000+0 -25813-1 0  9994
2 68003  43.0001 356.6993 0001551 272.8677 145.8458 15.59231181  4419
STARLINK-36888          
1 68004U 26039U   26078.25002315 -.01849277  00000+0 -26175-1 0  9990
2 68004  43.0002 356.7475 0001607 270.5037 128.9090 15.58903865  4412
STARLINK-36910          
1 68005U 26039V   26078.25002315 -.01852739  00000+0 -22771-1 0  9996
2 68005  42.9999 356.5605 0001363 276.5673 197.9527 15.62540321  4410
STARLINK-36889          
1 68006U 26039W   26078.25002315 -.01847556  00000+0 -27823-1 0  9991
2 68006  43.0002 356.7873 0001634 269.3078 113.6863 15.57274448  4413
STARLINK-36592          
1 68007U 26039X   26078.25002315 -.01847847  00000+0 -23511-1 0  9995
2 68007  42.9998 356.5659 0001365 274.5878 197.6024 15.61651696  4413
STARLINK-36911          
1 68008U 26039Y   26078.25002315 -.01837405  00000+0 -24775-1 0  9998
2 68008  42.9999 356.6227 0001463 272.5010 176.7007 15.60143914  4419
STARLINK-36956          
1 68009U 26039Z   26078.25002315 -.01846007  00000+0 -26031-1 0  9994
2 68009  42.9998 356.6670 0001506 273.8323 157.4270 15.58997505  4418
